ONEWEB-0436             
1 51633U 22012M   26165.25070343  .00000059  00000+0  11835-3 0  9993
2 51633  87.9143   6.4295 0001638  88.9515 271.1804 13.17649083213294
ONEWEB-0438             
1 51634U 22012N   26165.20104339 -.00000429  00000+0 -12645-2 0  9994
2 51634  87.8832  36.8756 0001983  80.7136 279.4216 13.10370674208955
ONEWEB-0439             
1 51635U 22012P   26165.12801723 -.00000531  00000+0 -15585-2 0  9997
2 51635  87.8831  36.8776 0001791  79.2043 280.9286 13.10373160208928
ONEWEB-0442             
1 51636U 22012Q   26165.09124388  .00000034  00000+0  54868-4 0  9994
2 51636  87.9138   6.4943 0002407  83.5363 276.6043 13.17648899213264
ONEWEB-0443             
1 51637U 22012R   26165.26251440  .00000013  00000+0  44967-6 0  9992
2 51637  87.9135   6.4611 0001816  76.3005 283.8329 13.17649649213339
ONEWEB-0444             
1 51638U 22012S   26165.19440634 -.00000239  00000+0 -72131-3 0  9993
2 51638  87.8829  36.8632 0001828  77.7508 282.3824 13.10370494208942
ONEWEB-0445             
1 51639U 22012T   26165.13962635 -.00000563  00000+0 -16494-2 0  9997
2 51639  87.8845  36.8626 0001839  89.0501 271.0838 13.10374452208943
ONEWEB-0446             
1 51640U 22012U   26165.19274573 -.00000098  00000+0 -31613-3 0  9996
2 51640  87.8832  36.8805 0001866  87.2924 272.8417 13.10369235208933
ONEWEB-0448             
1 51641U 22012V   26165.19772748 -.00000309  00000+0 -92024-3 0  9992
2 51641  87.8830  36.8760 0001759  80.1617 279.9709 13.10370732208907
ONEWEB-0449             
1 51642U 22012W   26165.20270331 -.00000519  00000+0 -15234-2 0  9996
2 51642  87.8836  36.8604 0002185  75.6136 284.5234 13.10370823208917
ONEWEB-0451             
1 51643U 22012X   26165.24734076  .00000053  00000+0  10384-3 0  9995
2 51643  87.9146   6.4276 0002010  82.8960 277.2400 13.17649215213273
ONEWEB-0452             
1 51644U 22012Y   26165.24564159  .00000023  00000+0  26125-4 0  9997
2 51644  87.9137   6.4651 0001921  78.1388 281.9959 13.17648826213282
ONEWEB-0456             
1 51646U 22012AA  26165.13628841 -.00000521  00000+0 -15281-2 0  9990
2 51646  87.8846  36.8613 0001651  80.7355 279.3959 13.10372673208943
ONEWEB-0457             
1 51647U 22012AB  26165.18928936  .00000090  00000+0  22052-3 0  9998
2 51647  87.8831  36.8687 0002153  89.3362 270.8012 13.10368944208953
ONEWEB-0458             
1 51648U 22012AC  26165.13464393 -.00000576  00000+0 -16877-2 0  9994
2 51648  87.8844  36.8677 0001892  76.0193 284.1145 13.10372441208908
ONEWEB-0461             
1 51649U 22012AD  26165.26757779  .00000066  00000+0  13580-3 0  9993
2 51649  87.9143   6.4376 0001950  89.6751 270.4604 13.17648675213508
